{"type": "FeatureCollection", "features": [ {"type": "Feature", "properties": {"norad_id": 66482, "name": "STARLINK-35648", "group": "last-30-days", "lat": 31.669121550605933, "lon": 150.48802576669874, "alt_km": 414.47513877809433, "timestamp": "2025-12-06T05:40:08.011117+00:00", "meta": {"OBJECT_NAME": "STARLINK-35648", "OBJECT_ID": "2025-262AC", "EPOCH": "2025-12-05T06:00:02.000160", "MEAN_MOTION": 15.51203305, "ECCENTRICITY": 9.785e-05, "INCLINATION": 42.9998, "RA_OF_ASC_NODE": 114.8028, "ARG_OF_PERICENTER": 274.0421, "MEAN_ANOMALY": 26.1146, "EPHEMERIS_TYPE": 0, "CLASSIFICATION_TYPE": "U", "NORAD_CAT_ID": 66482, "ELEMENT_SET_NO": 999, "REV_AT_EPOCH": 427, "BSTAR": -0.017100525, "MEAN_MOTION_DOT": -0.0094161, "MEAN_MOTION_DDOT": 0}, "tle": {"line1": "1 66482U 25262AC  25339.25002315 -.00941610  00000+0 -17101-1 0  9996", "line2": "2 66482  42.9998 114.8028 0000978 274.0421  26.1146 15.51203305  4275"}}, "geometry": {"type": "Point", "coordinates": [150.48802576669874, 31.669121550605933]}}, {"type": "Feature", "properties": {"norad_id": 66483, "name": "STARLINK-35654", "group": "last-30-days", "lat": 32.65148388655879, "lon": 152.47561857429358, "alt_km": 414.19102781609854, "timestamp": "2025-12-06T05:40:08.011129+00:00", "meta": {"OBJECT_NAME": "STARLINK-35654", "OBJECT_ID": "2025-262AD", "EPOCH": "2025-12-05T06:00:02.000160", "MEAN_MOTION": 15.51193905, "ECCENTRICITY": 9.058e-05, "INCLINATION": 43, "RA_OF_ASC_NODE": 114.7971, "ARG_OF_PERICENTER": 277.0583, "MEAN_ANOMALY": 25.0169, "EPHEMERIS_TYPE": 0, "CLASSIFICATION_TYPE": "U", "NORAD_CAT_ID": 66483, "ELEMENT_SET_NO": 999, "REV_AT_EPOCH": 443, "BSTAR": -0.016779365, "MEAN_MOTION_DOT": -0.00925023, "MEAN_MOTION_DDOT": 0}, "tle": {"line1": "1 66483U 25262AD  25339.25002315 -.00925023  00000+0 -16779-1 0  9997", "line2": "2 66483  43.0000 114.7971 0000905 277.0583  25.0169 15.51193905  4435"}}, "geometry": {"type": "Point", "coordinates": [152.47561857429358, 32.65148388655879]}}, {"type": "Feature", "properties": {"norad_id": 66484, "name": "STARLINK-35371", "group": "last-30-days", "lat": 33.616739748971206, "lon": 154.54283509116877, "alt_km": 414.1225232756233, "timestamp": "2025-12-06T05:40:08.011142+00:00", "meta": {"OBJECT_NAME": "STARLINK-35371", "OBJECT_ID": "2025-262AE", "EPOCH": "2025-12-05T06:00:02.000160", "MEAN_MOTION": 15.51198667, "ECCENTRICITY": 0.00010829, "INCLINATION": 42.9998, "RA_OF_ASC_NODE": 114.7935, "ARG_OF_PERICENTER": 263.5006, "MEAN_ANOMALY": 40.4889, "EPHEMERIS_TYPE": 0, "CLASSIFICATION_TYPE": "U", "NORAD_CAT_ID": 66484, "ELEMENT_SET_NO": 999, "REV_AT_EPOCH": 443, "BSTAR": -0.016518806, "MEAN_MOTION_DOT": -0.00911958, "MEAN_MOTION_DDOT": 0}, "tle": {"line1": "1 66484U 25262AE  25339.25002315 -.00911958  00000+0 -16519-1 0  9992", "line2": "2 66484  42.9998 114.7935 0001082 263.5006  40.4889 15.51198667  4437"}}, "geometry": {"type": "Point", "coordinates": [154.54283509116877, 33.616739748971206]}}, {"type": "Feature", "properties": {"norad_id": 66485, "name": "STARLINK-34774", "group": "last-30-days", "lat": -42.59521089149588, "lon": 63.91553999613493, "alt_km": 390.5279576813291, "timestamp": "2025-12-06T05:40:08.011152+00:00", "meta": {"OBJECT_NAME": "STARLINK-34774", "OBJECT_ID": "2025-263A", "EPOCH": "2025-12-05T06:00:02.000160", "MEAN_MOTION": 15.63878076, "ECCENTRICITY": 0.00014549, "INCLINATION": 42.9992, "RA_OF_ASC_NODE": 169.148, "ARG_OF_PERICENTER": 275.628, "MEAN_ANOMALY": 196.369, "EPHEMERIS_TYPE": 0, "CLASSIFICATION_TYPE": "U", "NORAD_CAT_ID": 66485, "ELEMENT_SET_NO": 999, "REV_AT_EPOCH": 443, "BSTAR": -0.024273708, "MEAN_MOTION_DOT": -0.02054051, "MEAN_MOTION_DDOT": 0}, "tle": {"line1": "1 66485U 25263A   25339.25002315 -.02054051  00000+0 -24274-1 0  9995", "line2": "2 66485  42.9992 169.1480 0001454 275.6280 196.3690 15.63878076  4435"}}, "geometry": {"type": "Point", "coordinates": [63.91553999613493, -42.59521089149588]}}, {"type": "Feature", "properties": {"norad_id": 66486, "name": "STARLINK-34844", "group": "last-30-days", "lat": -42.77735672097766, "lon": 66.48745042974363, "alt_km": 390.4926850762913, "timestamp": "2025-12-06T05:40:08.011163+00:00", "meta": {"OBJECT_NAME": "STARLINK-34844", "OBJECT_ID": "2025-263B", "EPOCH": "2025-12-05T06:00:02.000160", "MEAN_MOTION": 15.63881213, "ECCENTRICITY": 0.00015167, "INCLINATION": 42.999, "RA_OF_ASC_NODE": 169.1424, "ARG_OF_PERICENTER": 274.7017, "MEAN_ANOMALY": 199.2117, "EPHEMERIS_TYPE": 0, "CLASSIFICATION_TYPE": "U", "NORAD_CAT_ID": 66486, "ELEMENT_SET_NO": 999, "REV_AT_EPOCH": 438, "BSTAR": -0.024344751, "MEAN_MOTION_DOT": -0.02059576, "MEAN_MOTION_DDOT": 0}, "tle": {"line1": "1 66486U 25263B   25339.25002315 -.02059576  00000+0 -24345-1 0  9992", "line2": "2 66486  42.9990 169.1424 0001516 274.7017 199.2117 15.63881213  4386"}}, "geometry": {"type": "Point", "coordinates": [66.48745042974363, -42.77735672097766]}}, {"type": "Feature", "properties": {"norad_id": 66487, "name": "STARLINK-34733", "group": "last-30-days", "lat": -42.90258181759869, "lon": 69.10039530879571, "alt_km": 390.50905638533186, "timestamp": "2025-12-06T05:40:08.011172+00:00", "meta": {"OBJECT_NAME": "STARLINK-34733", "OBJECT_ID": "2025-263C", "EPOCH": "2025-12-05T06:00:02.000160", "MEAN_MOTION": 15.63881034, "ECCENTRICITY": 0.00014588, "INCLINATION": 42.999, "RA_OF_ASC_NODE": 169.1381, "ARG_OF_PERICENTER": 274.2289, "MEAN_ANOMALY": 201.5998, "EPHEMERIS_TYPE": 0, "CLASSIFICATION_TYPE": "U", "NORAD_CAT_ID": 66487, "ELEMENT_SET_NO": 999, "REV_AT_EPOCH": 443, "BSTAR": -0.024311795, "MEAN_MOTION_DOT": -0.02057082, "MEAN_MOTION_DDOT": 0}, "tle": {"line1": "1 66487U 25263C   25339.25002315 -.02057082  00000+0 -24312-1 0  9997", "line2": "2 66487  42.9990 169.1381 0001458 274.2289 201.5998 15.63881034  4431"}}, "geometry": {"type": "Point", "coordinates": [69.10039530879571, -42.90258181759869]}}, {"type": "Feature", "properties": {"norad_id": 66488, "name": "STARLINK-35515", "group": "last-30-days", "lat": -42.967995724878286, "lon": 71.69924016480466, "alt_km": 390.53792280516063, "timestamp": "2025-12-06T05:40:08.011182+00:00", "meta": {"OBJECT_NAME": "STARLINK-35515", "OBJECT_ID": "2025-263D", "EPOCH": "2025-12-05T06:00:02.000160", "MEAN_MOTION": 15.63882445, "ECCENTRICITY": 0.00014366, "INCLINATION": 42.9993, "RA_OF_ASC_NODE": 169.1329, "ARG_OF_PERICENTER": 275.1507, "MEAN_ANOMALY": 202.5961, "EPHEMERIS_TYPE": 0, "CLASSIFICATION_TYPE": "U", "NORAD_CAT_ID": 66488, "ELEMENT_SET_NO": 999, "REV_AT_EPOCH": 443, "BSTAR": -0.024353112, "MEAN_MOTION_DOT": -0.02060216, "MEAN_MOTION_DDOT": 0}, "tle": {"line1": "1 66488U 25263D   25339.25002315 -.02060216  00000+0 -24353-1 0  9996", "line2": "2 66488  42.9993 169.1329 0001436 275.1507 202.5961 15.63882445  4434"}}, "geometry": {"type": "Point", "coordinates": [71.69924016480466, -42.967995724878286]}}, {"type": "Feature", "properties": {"norad_id": 66489, "name": "STARLINK-35696", "group": "last-30-days", "lat": -42.97358773628344, "lon": 74.31368481430385, "alt_km": 390.4924754313852, "timestamp": "2025-12-06T05:40:08.011192+00:00", "meta": {"OBJECT_NAME": "STARLINK-35696", "OBJECT_ID": "2025-263E", "EPOCH": "2025-12-05T06:00:02.000160", "MEAN_MOTION": 15.63880022, "ECCENTRICITY": 0.00014765, "INCLINATION": 42.999, "RA_OF_ASC_NODE": 169.1282, "ARG_OF_PERICENTER": 274.3673, "MEAN_ANOMALY": 205.298, "EPHEMERIS_TYPE": 0, "CLASSIFICATION_TYPE": "U", "NORAD_CAT_ID": 66489, "ELEMENT_SET_NO": 999, "REV_AT_EPOCH": 443, "BSTAR": -0.024328195, "MEAN_MOTION_DOT": -0.02058234, "MEAN_MOTION_DDOT": 0}, "tle": {"line1": "1 66489U 25263E   25339.25002315 -.02058234  00000+0 -24328-1 0  9996", "line2": "2 66489  42.9990 169.1282 0001476 274.3673 205.2980 15.63880022  4439"}}, "geometry": {"type": "Point", "coordinates": [74.31368481430385, -42.97358773628344]}}, {"type": "Feature", "properties": {"norad_id": 66490, "name": "STARLINK-35693", "group": "last-30-days", "lat": -42.920578124166326, "lon": 76.91398725896714, "alt_km": 390.5138565671732, "timestamp": "2025-12-06T05:40:08.011202+00:00", "meta": {"OBJECT_NAME": "STARLINK-35693", "OBJECT_ID": "2025-263F", "EPOCH": "2025-12-05T06:00:02.000160", "MEAN_MOTION": 15.63882531, "ECCENTRICITY": 0.00014564, "INCLINATION": 42.9994, "RA_OF_ASC_NODE": 169.1234, "ARG_OF_PERICENTER": 272.4534, "MEAN_ANOMALY": 209.1288, "EPHEMERIS_TYPE": 0, "CLASSIFICATION_TYPE": "U", "NORAD_CAT_ID": 66490, "ELEMENT_SET_NO": 999, "REV_AT_EPOCH": 443, "BSTAR": -0.024383375, "MEAN_MOTION_DOT": -0.02062472, "MEAN_MOTION_DDOT": 0}, "tle": {"line1": "1 66490U 25263F   25339.25002315 -.02062472  00000+0 -24383-1 0  9998", "line2": "2 66490  42.9994 169.1234 0001456 272.4534 209.1288 15.63882531  4436"}}, "geometry": {"type": "Point", "coordinates": [76.91398725896714, -42.920578124166326]}}, {"type": "Feature", "properties": {"norad_id": 66491, "name": "STARLINK-35663", "group": "last-30-days", "lat": -42.63380486822799, "lon": 82.12724995645016, "alt_km": 390.50012344873903, "timestamp": "2025-12-06T05:40:08.011216+00:00", "meta": {"OBJECT_NAME": "STARLINK-35663", "OBJECT_ID": "2025-263G", "EPOCH": "2025-12-05T06:00:02.000160", "MEAN_MOTION": 15.63880408, "ECCENTRICITY": 0.00014242, "INCLINATION": 42.9988, "RA_OF_ASC_NODE": 169.1136, "ARG_OF_PERICENTER": 271.6372, "MEAN_ANOMALY": 213.777, "EPHEMERIS_TYPE": 0, "CLASSIFICATION_TYPE": "U", "NORAD_CAT_ID": 66491, "ELEMENT_SET_NO": 999, "REV_AT_EPOCH": 443, "BSTAR": -0.024308704, "MEAN_MOTION_DOT": -0.0205678, "MEAN_MOTION_DDOT": 0}, "tle": {"line1": "1 66491U 25263G   25339.25002315 -.02056780  00000+0 -24309-1 0  9992", "line2": "2 66491  42.9988 169.1136 0001424 271.6372 213.7770 15.63880408  4435"}}, "geometry": {"type": "Point", "coordinates": [82.12724995645016, -42.63380486822799]}}]}